{"type":"FeatureCollection","features":[{"type":"Feature","geometry":{"type":"Point","coordinates":[106.16191,-6.133136,0]},"properties":{"name":"Rs Bayangkara TK IV Banten","styleUrl":"#m_ylw-pushpin","icon-scale":1.1,"icon-offset":[20,2],"icon-offset-units":["pixels","pixels"],"icon":"http://maps.google.com/mapfiles/kml/pushpin/ylw-pushpin.png"}},{"type":"Feature","geometry":{"type":"Point","coordinates":[106.20079,-6.11249,0]},"properties":{"name":"RSUD Kota Serang","styleUrl":"#m_ylw-pushpin","icon-scale":1.1,"icon-offset":[20,2],"icon-offset-units":["pixels","pixels"],"icon":"http://maps.google.com/mapfiles/kml/pushpin/ylw-pushpin.png"}},{"type":"Feature","geometry":{"type":"Point","coordinates":[106.184946,-6.163905,0]},"properties":{"name":"RSUD Banten","styleUrl":"#m_ylw-pushpin","icon-scale":1.1,"icon-offset":[20,2],"icon-offset-units":["pixels","pixels"],"icon":"http://maps.google.com/mapfiles/kml/pushpin/ylw-pushpin.png"}},{"type":"Feature","geometry":{"type":"Point","coordinates":[106.13863,-6.115521,0]},"properties":{"name":"RS Achmad Wardi","styleUrl":"#m_ylw-pushpin","icon-scale":1.1,"icon-offset":[20,2],"icon-offset-units":["pixels","pixels"],"icon":"http://maps.google.com/mapfiles/kml/pushpin/ylw-pushpin.png"}},{"type":"Feature","geometry":{"type":"Point","coordinates":[106.155666,-6.122918,0]},"properties":{"name":"RS Benggala","styleUrl":"#m_ylw-pushpin","icon-scale":1.1,"icon-offset":[20,2],"icon-offset-units":["pixels","pixels"],"icon":"http://maps.google.com/mapfiles/kml/pushpin/ylw-pushpin.png"}},{"type":"Feature","geometry":{"type":"Point","coordinates":[106.13554,-6.103775,0]},"properties":{"name":"Rs Fatimah","styleUrl":"#m_ylw-pushpin","icon-scale":1.1,"icon-offset":[20,2],"icon-offset-units":["pixels","pixels"],"icon":"http://maps.google.com/mapfiles/kml/pushpin/ylw-pushpin.png"}},{"type":"Feature","geometry":{"type":"Point","coordinates":[106.165182,-6.121977,0]},"properties":{"name":"RS Budi Asih","styleUrl":"#m_ylw-pushpin","icon-scale":1.1,"icon-offset":[20,2],"icon-offset-units":["pixels","pixels"],"icon":"http://maps.google.com/mapfiles/kml/pushpin/ylw-pushpin.png"}},{"type":"Feature","geometry":{"type":"Point","coordinates":[106.181002,-6.118887,0]},"properties":{"name":"RS Sari Asih","styleUrl":"#m_ylw-pushpin","icon-scale":1.1,"icon-offset":[20,2],"icon-offset-units":["pixels","pixels"],"icon":"http://maps.google.com/mapfiles/kml/pushpin/ylw-pushpin.png"}},{"type":"Feature","geometry":{"type":"Point","coordinates":[106.140888,-6.099684,0]},"properties":{"name":"RSIA Puri Garcia","styleUrl":"#m_ylw-pushpin","icon-scale":1.1,"icon-offset":[20,2],"icon-offset-units":["pixels","pixels"],"icon":"http://maps.google.com/mapfiles/kml/pushpin/ylw-pushpin.png"}},{"type":"Feature","geometry":{"type":"Point","coordinates":[106.152454,-6.119732,0]},"properties":{"name":"RSUD Dr. Drajat Prawiranegara\n","styleUrl":"#m_ylw-pushpin","icon-scale":1.1,"icon-offset":[20,2],"icon-offset-units":["pixels","pixels"],"icon":"http://maps.google.com/mapfiles/kml/pushpin/ylw-pushpin.png"}},{"type":"Feature","geometry":{"type":"Point","coordinates":[106.150276,-6.118682,0]},"properties":{"name":"RS Ibunda Serang\n","styleUrl":"#m_ylw-pushpin","icon-scale":1.1,"icon-offset":[20,2],"icon-offset-units":["pixels","pixels"],"icon":"http://maps.google.com/mapfiles/kml/pushpin/ylw-pushpin.png"}},{"type":"Feature","geometry":{"type":"Point","coordinates":[106.159215,-6.11814,0]},"properties":{"name":"RS Kencana Serang","styleUrl":"#m_ylw-pushpin","icon-scale":1.1,"icon-offset":[20,2],"icon-offset-units":["pixels","pixels"],"icon":"http://maps.google.com/mapfiles/kml/pushpin/ylw-pushpin.png"}}]}